start=new Date('2023-01-26T00:00:00.000Z').valueOf();
sats=[{"TLE_LINE1":"1 46129U 20057N   23025.60873551  .00004199  00000-0  30056-3 0  9993","BSTAR":"0.00030056000000","TLE_LINE2":"2 46129  53.0565 350.1511 0001928  79.8882 280.2324 15.06406800134948","MEAN_MOTION_DOT":"0.00004199","REV_AT_EPOCH":"13494","CENTER_NAME":"EARTH","RA_OF_ASC_NODE":"350.1511","OBJECT_NAME":"STARLINK-1623","INCLINATION":"53.0565","NORAD_CAT_ID":"46129","REF_FRAME":"TEME","RCS_SIZE":"LARGE","EPHEMERIS_TYPE":"0","DECAY_DATE":null,"EPOCH":"2023-01-25T14:36:34.748064","CLASSIFICATION_TYPE":"U","MEAN_ELEMENT_THEORY":"SGP4","PERIAPSIS":"545.858","MEAN_MOTION_DDOT":"0.0000000000000","MEAN_MOTION":"15.06406800","PERIOD":"95.592","SITE":"AFETR","MEAN_ANOMALY":"280.2324","ELEMENT_SET_NO":"999","LAUNCH_DATE":"2020-08-18","SEMIMAJOR_AXIS":"6925.328","OBJECT_TYPE":"PAYLOAD","OBJECT_ID":"2020-057N","ECCENTRICITY":"0.00019280","TIME_SYSTEM":"UTC","GP_ID":"223713622","ARG_OF_PERICENTER":"79.8882","COUNTRY_CODE":"US","FILE":"3761360","APOAPSIS":"548.528"},{"BSTAR":"0.00209810000000","MEAN_MOTION_DOT":"0.00031151","TLE_LINE2":"2 46130  53.0558 351.4907 0002146  85.1591 274.9643 15.06450065136145","REV_AT_EPOCH":"13614","TLE_LINE1":"1 46130U 20057P   23025.31019638  .00031151  00000-0  20981-2 0  9994","INCLINATION":"53.0558","NORAD_CAT_ID":"46130","RCS_SIZE":"LARGE","REF_FRAME":"TEME","CENTER_NAME":"EARTH","RA_OF_ASC_NODE":"351.4907","OBJECT_NAME":"STARLINK-1624","MEAN_MOTION_DDOT":"0.0000000000000","MEAN_MOTION":"15.06450065","PERIOD":"95.589","EPHEMERIS_TYPE":"0","EPOCH":"2023-01-25T07:26:40.967232","DECAY_DATE":null,"CLASSIFICATION_TYPE":"U","MEAN_ELEMENT_THEORY":"SGP4","PERIAPSIS":"545.574","ECCENTRICITY":"0.00021460","OBJECT_ID":"2020-057P","OBJECT_TYPE":"PAYLOAD","GP_ID":"223686574","ARG_OF_PERICENTER":"85.1591","TIME_SYSTEM":"UTC","COUNTRY_CODE":"US","APOAPSIS":"548.546","FILE":"3761297","SITE":"AFETR","LAUNCH_DATE":"2020-08-18","ELEMENT_SET_NO":"999","MEAN_ANOMALY":"274.9643","SEMIMAJOR_AXIS":"6925.195"},{"SITE":"AFETR","SEMIMAJOR_AXIS":"6925.334","LAUNCH_DATE":"2020-08-18","ELEMENT_SET_NO":"999","MEAN_ANOMALY":"264.6482","ARG_OF_PERICENTER":"95.4680","GP_ID":"223714123","TIME_SYSTEM":"UTC","OBJECT_ID":"2020-057Q","ECCENTRICITY":"0.00015220","OBJECT_TYPE":"PAYLOAD","APOAPSIS":"548.253","FILE":"3761360","COUNTRY_CODE":"US","EPOCH":"2023-01-25T15:42:55.254816","DECAY_DATE":null,"EPHEMERIS_TYPE":"0","PERIAPSIS":"546.145","MEAN_ELEMENT_THEORY":"SGP4","CLASSIFICATION_TYPE":"U","MEAN_MOTION_DDOT":"0.0000000000000","MEAN_MOTION":"15.06404772","PERIOD":"95.592","RA_OF_ASC_NODE":"9.9469","CENTER_NAME":"EARTH","OBJECT_NAME":"STARLINK-1625","INCLINATION":"53.0561","RCS_SIZE":"LARGE","REF_FRAME":"TEME","NORAD_CAT_ID":"46131","TLE_LINE1":"1 46131U 20057Q   23025.65480619  .00005549  00000-0  39110-3 0  9990","MEAN_MOTION_DOT":"0.00005549","TLE_LINE2":"2 46131  53.0561   9.9469 0001522  95.4680 264.6482 15.06404772135924","BSTAR":"0.00039110000000","REV_AT_EPOCH":"13592"},{"CLASSIFICATION_TYPE":"U","MEAN_ELEMENT_THEORY":"SGP4","PERIAPSIS":"546.131","EPHEMERIS_TYPE":"0","EPOCH":"2023-01-25T07:05:25.114848","DECAY_DATE":null,"PERIOD":"95.592","MEAN_MOTION_DDOT":"0.0000000000000","MEAN_MOTION":"15.06402408","LAUNCH_DATE":"2020-08-18","ELEMENT_SET_NO":"999","MEAN_ANOMALY":"274.0149","SEMIMAJOR_AXIS":"6925.341","SITE":"AFETR","COUNTRY_CODE":"US","APOAPSIS":"548.281","FILE":"3761297","OBJECT_ID":"2020-057R","ECCENTRICITY":"0.00015520","OBJECT_TYPE":"PAYLOAD","GP_ID":"223685076","ARG_OF_PERICENTER":"86.1017","TIME_SYSTEM":"UTC","TLE_LINE1":"1 46132U 20057R   23025.29542957  .00004047  00000-0  29038-3 0  9995","REV_AT_EPOCH":"13559","BSTAR":"0.00029038000000","MEAN_MOTION_DOT":"0.00004047","TLE_LINE2":"2 46132  53.0537  31.5585 0001552  86.1017 274.0149 15.06402408135594","OBJECT_NAME":"STARLINK-1630","CENTER_NAME":"EARTH","RA_OF_ASC_NODE":"31.5585","NORAD_CAT_ID":"46132","RCS_SIZE":"LARGE","REF_FRAME":"TEME","INCLINATION":"53.0537"},{"MEAN_ELEMENT_THEORY":"SGP4","PERIAPSIS":"545.870","CLASSIFICATION_TYPE":"U","DECAY_DATE":null,"EPOCH":"2023-01-25T15:03:07.573536","EPHEMERIS_TYPE":"0","PERIOD":"95.592","MEAN_MOTION":"15.06403682","MEAN_MOTION_DDOT":"0.0000000000000","SEMIMAJOR_AXIS":"6925.337","MEAN_ANOMALY":"264.6633","LAUNCH_DATE":"2020-08-18","ELEMENT_SET_NO":"999","SITE":"AFETR","FILE":"3761360","APOAPSIS":"548.535","COUNTRY_CODE":"US","TIME_SYSTEM":"UTC","ARG_OF_PERICENTER":"95.4575","GP_ID":"223713123","OBJECT_TYPE":"PAYLOAD","OBJECT_ID":"2020-057S","ECCENTRICITY":"0.00019240","TLE_LINE1":"1 46133U 20057S   23025.62717099  .00011647  00000-0  79945-3 0  9990","REV_AT_EPOCH":"13619","TLE_LINE2":"2 46133  53.0521 350.0802 0001924  95.4575 264.6633 15.06403682136199","MEAN_MOTION_DOT":"0.00011647","BSTAR":"0.00079945000000","OBJECT_NAME":"STARLINK-1637","RA_OF_ASC_NODE":"350.0802","CENTER_NAME":"EARTH","REF_FRAME":"TEME","RCS_SIZE":"LARGE","NORAD_CAT_ID":"46133","INCLINATION":"53.0521"},{"RA_OF_ASC_NODE":"350.0474","CENTER_NAME":"EARTH","OBJECT_NAME":"STARLINK-1638","INCLINATION":"53.0555","REF_FRAME":"TEME","RCS_SIZE":"LARGE","NORAD_CAT_ID":"46134","TLE_LINE1":"1 46134U 20057T   23025.62990297  .00003966  00000-0  28493-3 0  9991","TLE_LINE2":"2 46134  53.0555 350.0474 0002075  99.9894 260.1329 15.06406096134949","MEAN_MOTION_DOT":"0.00003966","BSTAR":"0.00028493000000","REV_AT_EPOCH":"13494","SITE":"AFETR","SEMIMAJOR_AXIS":"6925.330","MEAN_ANOMALY":"260.1329","LAUNCH_DATE":"2020-08-18","ELEMENT_SET_NO":"999","TIME_SYSTEM":"UTC","GP_ID":"223713871","ARG_OF_PERICENTER":"99.9894","OBJECT_TYPE":"PAYLOAD","OBJECT_ID":"2020-057T","ECCENTRICITY":"0.00020750","FILE":"3761360","APOAPSIS":"548.632","COUNTRY_CODE":"US","DECAY_DATE":null,"EPOCH":"2023-01-25T15:07:03.616608","EPHEMERIS_TYPE":"0","MEAN_ELEMENT_THEORY":"SGP4","PERIAPSIS":"545.758","CLASSIFICATION_TYPE":"U","MEAN_MOTION_DDOT":"0.0000000000000","MEAN_MOTION":"15.06406096","PERIOD":"95.592"},{"TLE_LINE1":"1 46135U 20057U   23025.31385682  .00020207  00000-0  13711-2 0  9997","BSTAR":"0.00137110000000","MEAN_MOTION_DOT":"0.00020207","TLE_LINE2":"2 46135  53.0532 351.4848 0001969 103.6501 256.4707 15.06412855134896","REV_AT_EPOCH":"13489","CENTER_NAME":"EARTH","RA_OF_ASC_NODE":"351.4848","OBJECT_NAME":"STARLINK-1639","INCLINATION":"53.0532","NORAD_CAT_ID":"46135","RCS_SIZE":"LARGE","REF_FRAME":"TEME","EPHEMERIS_TYPE":"0","EPOCH":"2023-01-25T07:31:57.229248","DECAY_DATE":null,"CLASSIFICATION_TYPE":"U","MEAN_ELEMENT_THEORY":"SGP4","PERIAPSIS":"545.811","MEAN_MOTION_DDOT":"0.0000000000000","MEAN_MOTION":"15.06412855","PERIOD":"95.591","SITE":"AFETR","ELEMENT_SET_NO":"999","LAUNCH_DATE":"2020-08-18","MEAN_ANOMALY":"256.4707","SEMIMAJOR_AXIS":"6925.309","ECCENTRICITY":"0.00019690","OBJECT_ID":"2020-057U","OBJECT_TYPE":"PAYLOAD","ARG_OF_PERICENTER":"103.6501","GP_ID":"223686326","TIME_SYSTEM":"UTC","COUNTRY_CODE":"US","APOAPSIS":"548.538","FILE":"3761297"},{"MEAN_MOTION_DDOT":"0.0000000000000","MEAN_MOTION":"15.06402668","PERIOD":"95.592","EPHEMERIS_TYPE":"0","DECAY_DATE":null,"EPOCH":"2023-01-25T16:38:37.393440","CLASSIFICATION_TYPE":"U","PERIAPSIS":"545.732","MEAN_ELEMENT_THEORY":"SGP4","OBJECT_TYPE":"PAYLOAD","OBJECT_ID":"2020-057V","ECCENTRICITY":"0.00021280","TIME_SYSTEM":"UTC","GP_ID":"223714374","ARG_OF_PERICENTER":"90.8634","COUNTRY_CODE":"US","FILE":"3761360","APOAPSIS":"548.679","SITE":"AFETR","MEAN_ANOMALY":"269.2599","LAUNCH_DATE":"2020-08-18","ELEMENT_SET_NO":"999","SEMIMAJOR_AXIS":"6925.340","BSTAR":"0.00025682000000","TLE_LINE2":"2 46136  53.0571  19.7520 0002128  90.8634 269.2599 15.06402668134536","MEAN_MOTION_DOT":"0.00003546","REV_AT_EPOCH":"13453","TLE_LINE1":"1 46136U 20057V   23025.69348835  .00003546  00000-0  25682-3 0  9996","INCLINATION":"53.0571","NORAD_CAT_ID":"46136","REF_FRAME":"TEME","RCS_SIZE":"LARGE","CENTER_NAME":"EARTH","RA_OF_ASC_NODE":"19.7520","OBJECT_NAME":"STARLINK-1643"},{"OBJECT_NAME":"STARLINK-1586","CENTER_NAME":"EARTH","RA_OF_ASC_NODE":"9.9801","NORAD_CAT_ID":"46137","REF_FRAME":"TEME","RCS_SIZE":"LARGE","INCLINATION":"53.0538","TLE_LINE1":"1 46137U 20057W   23025.64743381  .00008512  00000-0  58955-3 0  9994","REV_AT_EPOCH":"13466","BSTAR":"0.00058955000000","TLE_LINE2":"2 46137  53.0538   9.9801 0001460  93.9010 266.2146 15.06405151134662","MEAN_MOTION_DOT":"0.00008512","MEAN_ANOMALY":"266.2146","LAUNCH_DATE":"2020-08-18","ELEMENT_SET_NO":"999","SEMIMAJOR_AXIS":"6925.333","SITE":"AFETR","COUNTRY_CODE":"US","FILE":"3761360","APOAPSIS":"548.209","OBJECT_TYPE":"PAYLOAD","OBJECT_ID":"2020-057W","ECCENTRICITY":"0.00014600","TIME_SYSTEM":"UTC","ARG_OF_PERICENTER":"93.9010","GP_ID":"223713623","CLASSIFICATION_TYPE":"U","PERIAPSIS":"546.187","MEAN_ELEMENT_THEORY":"SGP4","EPHEMERIS_TYPE":"0","DECAY_DATE":null,"EPOCH":"2023-01-25T15:32:18.281184","PERIOD":"95.592","MEAN_MOTION_DDOT":"0.0000000000000","MEAN_MOTION":"15.06405151"},{"RA_OF_ASC_NODE":"29.6950","CENTER_NAME":"EARTH","OBJECT_NAME":"STARLINK-1590","INCLINATION":"53.0557","REF_FRAME":"TEME","RCS_SIZE":"LARGE","NORAD_CAT_ID":"46138","TLE_LINE1":"1 46138U 20057X   23025.71194210  .00006429  00000-0  45007-3 0  9993","TLE_LINE2":"2 46138  53.0557  29.6950 0001525  99.1618 260.9544 15.06404248134391","MEAN_MOTION_DOT":"0.00006429","BSTAR":"0.00045007000000","REV_AT_EPOCH":"13439","SITE":"AFETR","SEMIMAJOR_AXIS":"6925.336","MEAN_ANOMALY":"260.9544","LAUNCH_DATE":"2020-08-18","ELEMENT_SET_NO":"999","TIME_SYSTEM":"UTC","GP_ID":"223713373","ARG_OF_PERICENTER":"99.1618","OBJECT_TYPE":"PAYLOAD","ECCENTRICITY":"0.00015250","OBJECT_ID":"2020-057X","FILE":"3761360","APOAPSIS":"548.257","COUNTRY_CODE":"US","DECAY_DATE":null,"EPOCH":"2023-01-25T17:05:11.797440","EPHEMERIS_TYPE":"0","PERIAPSIS":"546.144","MEAN_ELEMENT_THEORY":"SGP4","CLASSIFICATION_TYPE":"U","MEAN_MOTION":"15.06404248","MEAN_MOTION_DDOT":"0.0000000000000","PERIOD":"95.592"}];
